{"type": "FeatureCollection", "features": [ {"type": "Feature", "properties": {"norad_id": 32289, "name": "YAOGAN-3", "group": "resource", "lat": 53.98978074470208, "lon": 13.842865597914301, "alt_km": 592.3784730822072, "timestamp": "2025-12-24T05:51:19.262251+00:00", "meta": {"OBJECT_NAME": "YAOGAN-3", "OBJECT_ID": "2007-055A", "EPOCH": "2025-12-23T23:09:47.668320", "MEAN_MOTION": 14.8990918, "ECCENTRICITY": 0.0001234, "INCLINATION": 97.8351, "RA_OF_ASC_NODE": 24.4877, "ARG_OF_PERICENTER": 83.8659, "MEAN_ANOMALY": 276.2699, "EPHEMERIS_TYPE": 0, "CLASSIFICATION_TYPE": "U", "NORAD_CAT_ID": 32289, "ELEMENT_SET_NO": 999, "REV_AT_EPOCH": 97976, "BSTAR": 0.00026849945, "MEAN_MOTION_DOT": 2.528e-05, "MEAN_MOTION_DDOT": 0}, "tle": {"line1": "1 32289U 07055A   25357.96513505  .00002528  00000+0  26850-3 0  9997", "line2": "2 32289  97.8351  24.4877 0001234  83.8659 276.2699 14.89909180979768"}}, "geometry": {"type": "Point", "coordinates": [13.842865597914301, 53.98978074470208]}}, {"type": "Feature", "properties": {"norad_id": 32376, "name": "COSMO-SKYMED 2", "group": "resource", "lat": 13.893275600553727, "lon": 177.43101582494074, "alt_km": 623.2225390306712, "timestamp": "2025-12-24T05:51:19.262262+00:00", "meta": {"OBJECT_NAME": "COSMO-SKYMED 2", "OBJECT_ID": "2007-059A", "EPOCH": "2025-12-23T23:18:40.460832", "MEAN_MOTION": 14.82155863, "ECCENTRICITY": 0.00013109, "INCLINATION": 97.8805, "RA_OF_ASC_NODE": 179.1259, "ARG_OF_PERICENTER": 82.5112, "MEAN_ANOMALY": 277.625, "EPHEMERIS_TYPE": 0, "CLASSIFICATION_TYPE": "U", "NORAD_CAT_ID": 32376, "ELEMENT_SET_NO": 999, "REV_AT_EPOCH": 97604, "BSTAR": 7.3597305e-05, "MEAN_MOTION_DOT": 5.34e-06, "MEAN_MOTION_DDOT": 0}, "tle": {"line1": "1 32376U 07059A   25357.97130163  .00000534  00000+0  73597-4 0  9990", "line2": "2 32376  97.8805 179.1259 0001310  82.5112 277.6250 14.82155863976046"}}, "geometry": {"type": "Point", "coordinates": [177.43101582494074, 13.893275600553727]}}, {"type": "Feature", "properties": {"norad_id": 32382, "name": "RADARSAT-2", "group": "resource", "lat": -33.570506013539514, "lon": 8.416356869738003, "alt_km": 798.3045485676803, "timestamp": "2025-12-24T05:51:19.262272+00:00", "meta": {"OBJECT_NAME": "RADARSAT-2", "OBJECT_ID": "2007-061A", "EPOCH": "2025-12-23T23:17:48.637248", "MEAN_MOTION": 14.29984569, "ECCENTRICITY": 0.00011191, "INCLINATION": 98.5793, "RA_OF_ASC_NODE": 2.3971, "ARG_OF_PERICENTER": 85.9406, "MEAN_ANOMALY": 274.1904, "EPHEMERIS_TYPE": 0, "CLASSIFICATION_TYPE": "U", "NORAD_CAT_ID": 32382, "ELEMENT_SET_NO": 999, "REV_AT_EPOCH": 94091, "BSTAR": 7.620558e-06, "MEAN_MOTION_DOT": -2.4e-07, "MEAN_MOTION_DDOT": 0}, "tle": {"line1": "1 32382U 07061A   25357.97070182 -.00000024  00000+0  76206-5 0  9990", "line2": "2 32382  98.5793   2.3971 0001119  85.9406 274.1904 14.29984569940914"}}, "geometry": {"type": "Point", "coordinates": [8.416356869738003, -33.570506013539514]}}, {"type": "Feature", "properties": {"norad_id": 32783, "name": "CARTOSAT-2A", "group": "resource", "lat": 20.921720177183733, "lon": 44.70674955094174, "alt_km": 628.1453239237999, "timestamp": "2025-12-24T05:51:19.262282+00:00", "meta": {"OBJECT_NAME": "CARTOSAT-2A", "OBJECT_ID": "2008-021A", "EPOCH": "2025-12-23T23:15:54.794016", "MEAN_MOTION": 14.78949968, "ECCENTRICITY": 0.00110011, "INCLINATION": 97.7911, "RA_OF_ASC_NODE": 47.4412, "ARG_OF_PERICENTER": 327.2712, "MEAN_ANOMALY": 32.7817, "EPHEMERIS_TYPE": 0, "CLASSIFICATION_TYPE": "U", "NORAD_CAT_ID": 32783, "ELEMENT_SET_NO": 999, "REV_AT_EPOCH": 95290, "BSTAR": 7.2314326e-05, "MEAN_MOTION_DOT": 4.84e-06, "MEAN_MOTION_DDOT": 0}, "tle": {"line1": "1 32783U 08021A   25357.96938419  .00000484  00000+0  72314-4 0  9991", "line2": "2 32783  97.7911  47.4412 0011001 327.2712  32.7817 14.78949968952906"}}, "geometry": {"type": "Point", "coordinates": [44.70674955094174, 20.921720177183733]}}, {"type": "Feature", "properties": {"norad_id": 33320, "name": "HUANJING 1A (HJ-1A)", "group": "resource", "lat": 69.81348384609022, "lon": -35.394596512751434, "alt_km": 607.9017349053775, "timestamp": "2025-12-24T05:51:19.262293+00:00", "meta": {"OBJECT_NAME": "HUANJING 1A (HJ-1A)", "OBJECT_ID": "2008-041A", "EPOCH": "2025-12-23T23:03:38.564064", "MEAN_MOTION": 14.83427083, "ECCENTRICITY": 0.00193136, "INCLINATION": 97.6546, "RA_OF_ASC_NODE": 345.7907, "ARG_OF_PERICENTER": 358.7486, "MEAN_ANOMALY": 1.3677, "EPHEMERIS_TYPE": 0, "CLASSIFICATION_TYPE": "U", "NORAD_CAT_ID": 33320, "ELEMENT_SET_NO": 999, "REV_AT_EPOCH": 93242, "BSTAR": 0.00015514087, "MEAN_MOTION_DOT": 1.226e-05, "MEAN_MOTION_DDOT": 0}, "tle": {"line1": "1 33320U 08041A   25357.96086301  .00001226  00000+0  15514-3 0  9998", "line2": "2 33320  97.6546 345.7907 0019313 358.7486   1.3677 14.83427083932427"}}, "geometry": {"type": "Point", "coordinates": [-35.394596512751434, 69.81348384609022]}}, {"type": "Feature", "properties": {"norad_id": 33321, "name": "HUANJING 1B (HJ-1B)", "group": "resource", "lat": -82.10490191467137, "lon": 94.26824873005116, "alt_km": 645.076608338989, "timestamp": "2025-12-24T05:51:19.262304+00:00", "meta": {"OBJECT_NAME": "HUANJING 1B (HJ-1B)", "OBJECT_ID": "2008-041B", "EPOCH": "2025-12-23T23:47:29.232384", "MEAN_MOTION": 14.8284783, "ECCENTRICITY": 0.00377872, "INCLINATION": 97.6402, "RA_OF_ASC_NODE": 349.4873, "ARG_OF_PERICENTER": 40.0423, "MEAN_ANOMALY": 320.3566, "EPHEMERIS_TYPE": 0, "CLASSIFICATION_TYPE": "U", "NORAD_CAT_ID": 33321, "ELEMENT_SET_NO": 999, "REV_AT_EPOCH": 93244, "BSTAR": 0.0001338043, "MEAN_MOTION_DOT": 1.045e-05, "MEAN_MOTION_DDOT": 0}, "tle": {"line1": "1 33321U 08041B   25357.99131056  .00001045  00000+0  13380-3 0  9998", "line2": "2 33321  97.6402 349.4873 0037787  40.0423 320.3566 14.82847830932447"}}, "geometry": {"type": "Point", "coordinates": [94.26824873005116, -82.10490191467137]}}, {"type": "Feature", "properties": {"norad_id": 33331, "name": "GEOEYE 1", "group": "resource", "lat": -45.691595241072015, "lon": -119.03523424770759, "alt_km": 682.6908759175121, "timestamp": "2025-12-24T05:51:19.262314+00:00", "meta": {"OBJECT_NAME": "GEOEYE 1", "OBJECT_ID": "2008-042A", "EPOCH": "2025-12-23T22:16:02.937792", "MEAN_MOTION": 14.64714663, "ECCENTRICITY": 0.00029457, "INCLINATION": 98.1238, "RA_OF_ASC_NODE": 69.067, "ARG_OF_PERICENTER": 236.1099, "MEAN_ANOMALY": 123.9824, "EPHEMERIS_TYPE": 0, "CLASSIFICATION_TYPE": "U", "NORAD_CAT_ID": 33331, "ELEMENT_SET_NO": 999, "REV_AT_EPOCH": 92449, "BSTAR": 0.00011712833, "MEAN_MOTION_DOT": 5.76e-06, "MEAN_MOTION_DDOT": 0}, "tle": {"line1": "1 33331U 08042A   25357.92781178  .00000576  00000+0  11713-3 0  9995", "line2": "2 33331  98.1238  69.0670 0002945 236.1099 123.9824 14.64714663924493"}}, "geometry": {"type": "Point", "coordinates": [-119.03523424770759, -45.691595241072015]}}, {"type": "Feature", "properties": {"norad_id": 33396, "name": "THEOS", "group": "resource", "lat": 36.892408728486174, "lon": 49.48257582138584, "alt_km": 821.8472870296973, "timestamp": "2025-12-24T05:51:19.262324+00:00", "meta": {"OBJECT_NAME": "THEOS", "OBJECT_ID": "2008-049A", "EPOCH": "2025-12-23T22:54:57.557376", "MEAN_MOTION": 14.2009742, "ECCENTRICITY": 0.00012221, "INCLINATION": 98.5849, "RA_OF_ASC_NODE": 55.7128, "ARG_OF_PERICENTER": 93.3739, "MEAN_ANOMALY": 266.7577, "EPHEMERIS_TYPE": 0, "CLASSIFICATION_TYPE": "U", "NORAD_CAT_ID": 33396, "ELEMENT_SET_NO": 999, "REV_AT_EPOCH": 89309, "BSTAR": -7.4221436e-05, "MEAN_MOTION_DOT": -2.01e-06, "MEAN_MOTION_DDOT": 0}, "tle": {"line1": "1 33396U 08049A   25357.95483284 -.00000201  00000+0 -74221-4 0  9994", "line2": "2 33396  98.5849  55.7128 0001222  93.3739 266.7577 14.20097420893096"}}, "geometry": {"type": "Point", "coordinates": [49.48257582138584, 36.892408728486174]}}, {"type": "Feature", "properties": {"norad_id": 33412, "name": "COSMO-SKYMED 3", "group": "resource", "lat": 51.39989376888492, "lon": -161.1162703183706, "alt_km": 543.6973000337603, "timestamp": "2025-12-24T05:51:19.262335+00:00", "meta": {"OBJECT_NAME": "COSMO-SKYMED 3", "OBJECT_ID": "2008-054A", "EPOCH": "2025-12-23T21:38:54.819168", "MEAN_MOTION": 15.05452552, "ECCENTRICITY": 0.00171211, "INCLINATION": 97.8456, "RA_OF_ASC_NODE": 208.4827, "ARG_OF_PERICENTER": 135.2665, "MEAN_ANOMALY": 224.9945, "EPHEMERIS_TYPE": 0, "CLASSIFICATION_TYPE": "U", "NORAD_CAT_ID": 33412, "ELEMENT_SET_NO": 999, "REV_AT_EPOCH": 93055, "BSTAR": 0.00043820205, "MEAN_MOTION_DOT": 6.251e-05, "MEAN_MOTION_DDOT": 0}, "tle": {"line1": "1 33412U 08054A   25357.90202337  .00006251  00000+0  43820-3 0  9991", "line2": "2 33412  97.8456 208.4827 0017121 135.2665 224.9945 15.05452552930556"}}, "geometry": {"type": "Point", "coordinates": [-161.1162703183706, 51.39989376888492]}}, {"type": "Feature", "properties": {"norad_id": 33446, "name": "YAOGAN-4", "group": "resource", "lat": 5.386073387046615, "lon": 108.98310688705061, "alt_km": 625.9225860693805, "timestamp": "2025-12-24T05:51:19.262345+00:00", "meta": {"OBJECT_NAME": "YAOGAN-4", "OBJECT_ID": "2008-061A", "EPOCH": "2025-12-23T12:52:24.131424", "MEAN_MOTION": 14.82712321, "ECCENTRICITY": 0.00130241, "INCLINATION": 97.9197, "RA_OF_ASC_NODE": 287.5304, "ARG_OF_PERICENTER": 285.0861, "MEAN_ANOMALY": 74.8911, "EPHEMERIS_TYPE": 0, "CLASSIFICATION_TYPE": "U", "NORAD_CAT_ID": 33446, "ELEMENT_SET_NO": 999, "REV_AT_EPOCH": 91963, "BSTAR": 0.00016555221, "MEAN_MOTION_DOT": 1.284e-05, "MEAN_MOTION_DDOT": 0}, "tle": {"line1": "1 33446U 08061A   25357.53639041  .00001284  00000+0  16555-3 0  9997", "line2": "2 33446  97.9197 287.5304 0013024 285.0861  74.8911 14.82712321919632"}}, "geometry": {"type": "Point", "coordinates": [108.98310688705061, 5.386073387046615]}}]}